[{"OBJECT_NAME":"CELESTIS-17 & SHERPA-FX1","OBJECT_ID":"2021-006CB","EPOCH":"2026-03-09T15:26:05.078112","MEAN_MOTION":15.30994801,"ECCENTRICITY":0.000663,"INCLINATION":97.2397,"RA_OF_ASC_NODE":112.1052,"ARG_OF_PERICENTER":178.1385,"MEAN_ANOMALY":181.9882,"EPHEMERIS_TYPE":0,"CLASSIFICATION_TYPE":"U","NORAD_CAT_ID":47486,"ELEMENT_SET_NO":999,"REV_AT_EPOCH":28406,"BSTAR":0.00024301,"MEAN_MOTION_DOT":7.207e-5,"MEAN_MOTION_DDOT":0},{"OBJECT_NAME":"STARLINK-34471","OBJECT_ID":"2025-144R","EPOCH":"2026-03-09T13:58:11.140032","MEAN_MOTION":15.30191669,"ECCENTRICITY":0.000114,"INCLINATION":53.1592,"RA_OF_ASC_NODE":181.6625,"ARG_OF_PERICENTER":90.6448,"MEAN_ANOMALY":269.4684,"EPHEMERIS_TYPE":0,"CLASSIFICATION_TYPE":"U","NORAD_CAT_ID":64739,"ELEMENT_SET_NO":999,"REV_AT_EPOCH":3963,"BSTAR":0.00060055,"MEAN_MOTION_DOT":0.00017465,"MEAN_MOTION_DDOT":0}]
